{
  "type": "FeatureCollection",
  "features": [
    {
      "type": "Feature",
      "properties": {
        "norad_id": 26766,
        "name": "INTELSAT 10 (IS-10)",
        "group": "intelsat",
        "lat": -7.785983398352243,
        "lon": -54.38773584153445,
        "alt_km": 36095.30751251836,
        "timestamp": "2025-12-04T03:47:54.221281+00:00",
        "meta_object_name": "INTELSAT 10 (IS-10)",
        "meta_object_id": "2001-019A",
        "meta_epoch": "2025-12-03T11:53:38.524992",
        "meta_mean_motion": 0.99078102,
        "meta_eccentricity": 0.0007771,
        "meta_inclination": 8.6063,
        "meta_ra_of_asc_node": 61.2471,
        "meta_arg_of_pericenter": 218.7876,
        "meta_mean_anomaly": 149.4282,
        "meta_ephemeris_type": 0,
        "meta_classification_type": "U",
        "meta_norad_cat_id": 26766,
        "meta_element_set_no": 999,
        "meta_rev_at_epoch": 4364,
        "meta_bstar": 0,
        "meta_mean_motion_dot": -1.56e-06,
        "meta_mean_motion_ddot": 0,
        "tle_line1": "1 26766U 01019A   25337.49558478 -.00000156  00000+0  00000+0 0  9999",
        "tle_line2": "2 26766   8.6063  61.2471 0007771 218.7876 149.4282  0.99078102 43647"
      },
      "geometry": {
        "type": "Point",
        "coordinates": [
          -54.38773584153445,
          -7.785983398352243
        ]
      }
    },
    {
      "type": "Feature",
      "properties": {
        "norad_id": 26900,
        "name": "INTELSAT 902 (IS-902)",
        "group": "intelsat",
        "lat": 0.6010596251091748,
        "lon": 80.02310585686283,
        "alt_km": 35804.63989103374,
        "timestamp": "2025-12-04T03:47:54.221304+00:00",
        "meta_object_name": "INTELSAT 902 (IS-902)",
        "meta_object_id": "2001-039A",
        "meta_epoch": "2025-12-01T16:59:59.311968",
        "meta_mean_motion": 1.00270327,
        "meta_eccentricity": 0.00043097,
        "meta_inclination": 5.6187,
        "meta_ra_of_asc_node": 74.2002,
        "meta_arg_of_pericenter": 175.119,
        "meta_mean_anomaly": 26.3816,
        "meta_ephemeris_type": 0,
        "meta_classification_type": "U",
        "meta_norad_cat_id": 26900,
        "meta_element_set_no": 999,
        "meta_rev_at_epoch": 8871,
        "meta_bstar": 0,
        "meta_mean_motion_dot": -2.63e-06,
        "meta_mean_motion_ddot": 0,
        "tle_line1": "1 26900U 01039A   25335.70832537 -.00000263  00000+0  00000+0 0  9993",
        "tle_line2": "2 26900   5.6187  74.2002 0004309 175.1190  26.3816  1.00270327 88713"
      },
      "geometry": {
        "type": "Point",
        "coordinates": [
          80.02310585686283,
          0.6010596251091748
        ]
      }
    },
    {
      "type": "Feature",
      "properties": {
        "norad_id": 27380,
        "name": "INTELSAT 904 (IS-904)",
        "group": "intelsat",
        "lat": 2.9535404505088914,
        "lon": 98.54577131789826,
        "alt_km": 35793.111517331745,
        "timestamp": "2025-12-04T03:47:54.221320+00:00",
        "meta_object_name": "INTELSAT 904 (IS-904)",
        "meta_object_id": "2002-007A",
        "meta_epoch": "2025-12-03T03:19:57.879840",
        "meta_mean_motion": 1.00269372,
        "meta_eccentricity": 0.00015814,
        "meta_inclination": 6.4293,
        "meta_ra_of_asc_node": 71.5412,
        "meta_arg_of_pericenter": 200.7188,
        "meta_mean_anomaly": 178.4698,
        "meta_ephemeris_type": 0,
        "meta_classification_type": "U",
        "meta_norad_cat_id": 27380,
        "meta_element_set_no": 999,
        "meta_rev_at_epoch": 4980,
        "meta_bstar": 0,
        "meta_mean_motion_dot": -2.1e-06,
        "meta_mean_motion_ddot": 0,
        "tle_line1": "1 27380U 02007A   25337.13886435 -.00000210  00000+0  00000+0 0  9999",
        "tle_line2": "2 27380   6.4293  71.5412 0001581 200.7188 178.4698  1.00269372 49801"
      },
      "geometry": {
        "type": "Point",
        "coordinates": [
          98.54577131789826,
          2.9535404505088914
        ]
      }
    },
    {
      "type": "Feature",
      "properties": {
        "norad_id": 27426,
        "name": "DIRECTV 5 (TEMPO 1)",
        "group": "intelsat",
        "lat": -3.677162450155809,
        "lon": 20.187552534166255,
        "alt_km": 35792.850006769826,
        "timestamp": "2025-12-04T03:47:54.221334+00:00",
        "meta_object_name": "DIRECTV 5 (TEMPO 1)",
        "meta_object_id": "2002-023A",
        "meta_epoch": "2025-12-03T16:39:22.076064",
        "meta_mean_motion": 1.00271189,
        "meta_eccentricity": 0.0003787,
        "meta_inclination": 4.3774,
        "meta_ra_of_asc_node": 77.7582,
        "meta_arg_of_pericenter": 190.0543,
        "meta_mean_anomaly": 304.6846,
        "meta_ephemeris_type": 0,
        "meta_classification_type": "U",
        "meta_norad_cat_id": 27426,
        "meta_element_set_no": 999,
        "meta_rev_at_epoch": 8616,
        "meta_bstar": 0,
        "meta_mean_motion_dot": -4.1e-07,
        "meta_mean_motion_ddot": 0,
        "tle_line1": "1 27426U 02023A   25337.69400551 -.00000041  00000+0  00000+0 0  9992",
        "tle_line2": "2 27426   4.3774  77.7582 0003787 190.0543 304.6846  1.00271189 86162"
      },
      "geometry": {
        "type": "Point",
        "coordinates": [
          20.187552534166255,
          -3.677162450155809
        ]
      }
    },
    {
      "type": "Feature",
      "properties": {
        "norad_id": 27438,
        "name": "INTELSAT 905 (IS-905)",
        "group": "intelsat",
        "lat": -6.140870334481877,
        "lon": -6.881936966010145,
        "alt_km": 35786.81538936572,
        "timestamp": "2025-12-04T03:47:54.221346+00:00",
        "meta_object_name": "INTELSAT 905 (IS-905)",
        "meta_object_id": "2002-027A",
        "meta_epoch": "2025-12-03T09:40:44.148864",
        "meta_mean_motion": 1.00273288,
        "meta_eccentricity": 0.000313,
        "meta_inclination": 6.2606,
        "meta_ra_of_asc_node": 72.1621,
        "meta_arg_of_pericenter": 189.1417,
        "meta_mean_anomaly": 179.1858,
        "meta_ephemeris_type": 0,
        "meta_classification_type": "U",
        "meta_norad_cat_id": 27438,
        "meta_element_set_no": 999,
        "meta_rev_at_epoch": 4940,
        "meta_bstar": 0,
        "meta_mean_motion_dot": 1.09e-06,
        "meta_mean_motion_ddot": 0,
        "tle_line1": "1 27438U 02027A   25337.40328876  .00000109  00000+0  00000+0 0  9991",
        "tle_line2": "2 27438   6.2606  72.1621 0003130 189.1417 179.1858  1.00273288 49400"
      },
      "geometry": {
        "type": "Point",
        "coordinates": [
          -6.881936966010145,
          -6.140870334481877
        ]
      }
    },
    {
      "type": "Feature",
      "properties": {
        "norad_id": 27445,
        "name": "GALAXY 3C (G-3C)",
        "group": "intelsat",
        "lat": -2.276924686300605,
        "lon": 35.37155498047865,
        "alt_km": 35791.21447047582,
        "timestamp": "2025-12-04T03:47:54.221372+00:00",
        "meta_object_name": "GALAXY 3C (G-3C)",
        "meta_object_id": "2002-030A",
        "meta_epoch": "2025-12-03T13:18:15.813216",
        "meta_mean_motion": 1.00270438,
        "meta_eccentricity": 0.0001294,
        "meta_inclination": 3.2396,
        "meta_ra_of_asc_node": 80.6,
        "meta_arg_of_pericenter": 99.135,
        "meta_mean_anomaly": 357.6153,
        "meta_ephemeris_type": 0,
        "meta_classification_type": "U",
        "meta_norad_cat_id": 27445,
        "meta_element_set_no": 999,
        "meta_rev_at_epoch": 4453,
        "meta_bstar": 0,
        "meta_mean_motion_dot": -1.36e-06,
        "meta_mean_motion_ddot": 0,
        "tle_line1": "1 27445U 02030A   25337.55434969 -.00000136  00000+0  00000+0 0  9991",
        "tle_line2": "2 27445   3.2396  80.6000 0001294  99.1350 357.6153  1.00270438 44535"
      },
      "geometry": {
        "type": "Point",
        "coordinates": [
          35.37155498047865,
          -2.276924686300605
        ]
      }
    },
    {
      "type": "Feature",
      "properties": {
        "norad_id": 27513,
        "name": "INTELSAT 906 (IS-906)",
        "group": "intelsat",
        "lat": 4.6252410678255576,
        "lon": -165.62247359564157,
        "alt_km": 35777.66895366142,
        "timestamp": "2025-12-04T03:47:54.221388+00:00",
        "meta_object_name": "INTELSAT 906 (IS-906)",
        "meta_object_id": "2002-041A",
        "meta_epoch": "2025-12-03T20:08:41.121312",
        "meta_mean_motion": 1.0027322,
        "meta_eccentricity": 0.0006133,
        "meta_inclination": 5.3064,
        "meta_ra_of_asc_node": 75.337,
        "meta_arg_of_pericenter": 192.5874,
        "meta_mean_anomaly": 171.3086,
        "meta_ephemeris_type": 0,
        "meta_classification_type": "U",
        "meta_norad_cat_id": 27513,
        "meta_element_set_no": 999,
        "meta_rev_at_epoch": 8507,
        "meta_bstar": 0,
        "meta_mean_motion_dot": 2.7e-07,
        "meta_mean_motion_ddot": 0,
        "tle_line1": "1 27513U 02041A   25337.83936483  .00000027  00000+0  00000+0 0  9996",
        "tle_line2": "2 27513   5.3064  75.3370 0006133 192.5874 171.3086  1.00273220 85075"
      },
      "geometry": {
        "type": "Point",
        "coordinates": [
          -165.62247359564157,
          4.6252410678255576
        ]
      }
    }
  ]
}